ONEWEB-0707             
1 61612U 24188U   25343.31774620  .00000627  00000+0  17604-2 0  9990
2 61612  87.8824  74.0973 0001053  90.1270 269.9978 13.10374495 58452
ONEWEB-0708             
1 61613U 24188V   25343.48871450  .00000484  00000+0  13512-2 0  9993
2 61613  87.8805  74.0986 0001398 125.0994 235.0265 13.10371121 58455
